QIANFAN-60              
1 62790U 25016F   25337.44795000  .00000049  00000+0  56507-4 0  9996
2 62790  88.9754 104.0359 0015725  16.5766 343.5896 13.50980040 45973
QIANFAN-61              
1 62791U 25016G   25337.48071226  .00000142  00000+0  20187-3 0  9996
2 62791  88.9821 104.1892 0014699  16.1441 344.0175 13.50977205 45994
QIANFAN-62              
1 62792U 25016H   25337.41073889  .00000137  00000+0  19410-3 0  9998
2 62792  88.9767 104.0698 0016084  16.1429 344.0231 13.50973604 45973
QIANFAN-63              
1 62793U 25016J   25337.43549947  .00000147  00000+0  20928-3 0  9991
2 62793  88.9774 104.0183 0016286  21.3504 338.8323 13.50980301 46018
QIANFAN-64              
1 62794U 25016K   25337.47656817  .00000114  00000+0  15863-3 0  9997
2 62794  88.9759 103.9890 0013985  15.1849 344.9719 13.50974934 46013
QIANFAN-65              
1 62795U 25016L   25337.47251389  .00000149  00000+0  21237-3 0  9993
2 62795  88.9758 104.0161 0013916  16.9552 343.2062 13.50981104 45996
QIANFAN-66              
1 62796U 25016M   25337.42720200  .00000158  00000+0  22566-3 0  9998
2 62796  88.9777 103.9891 0014894  12.1211 348.0295 13.50985171 46037
QIANFAN-67              
1 62797U 25016N   25337.43146398  .00000144  00000+0  20387-3 0  9994
2 62797  88.9767 104.0152 0015069  19.0053 341.1658 13.50977985 46002
QIANFAN-68              
1 62798U 25016P   25337.42317503  .00000160  00000+0  22984-3 0  9995
2 62798  88.9771 104.0609 0015066  17.2479 342.9181 13.50980365 45986
QIANFAN-69              
1 62799U 25016Q   25337.43968922  .00000142  00000+0  20106-3 0  9998
2 62799  88.9749 103.9306 0015852  18.0054 342.1655 13.50983295 46024
QIANFAN-70              
1 62800U 25016R   25337.45604936  .00000167  00000+0  23997-3 0  9993
2 62800  88.9770 104.0654 0015178   8.4527 351.6876 13.50974041 45981
QIANFAN-71              
1 62801U 25016S   25337.45193841  .00000141  00000+0  19999-3 0  9991
2 62801  88.9764 104.0459 0015877  21.4898 338.6917 13.50981183 45986
QIANFAN-72              
1 62802U 25016T   25337.46841392  .00000157  00000+0  22402-3 0  9994
2 62802  88.9755 104.0585 0019326  27.5285 332.6886 13.50981229 45976
QIANFAN-73              
1 63159U 25046A   25337.49541653  .00000040  00000+0  42769-4 0  9993
2 63159  88.9753 320.9801 0015865 144.5699 215.6509 13.50974694 46165
QIANFAN-74              
1 63160U 25046B   25337.47883205  .00000051  00000+0  59987-4 0  9997
2 63160  88.9754 320.8705 0001969  82.0944 278.0431 13.50976857 46226
QIANFAN-75              
1 63161U 25046C   25337.46610249  .00000095  00000+0  12829-3 0  9994
2 63161  88.9757 321.1047 0016814 147.7083 212.5101 13.50973948 46091
QIANFAN-76              
1 63162U 25046D   25337.46264979 -.00000115  00000+0 -19665-3 0  9990
2 63162  88.9752 321.0866 0014388 147.7079 212.4955 13.50962589 46101
QIANFAN-77              
1 63163U 25046E   25337.43985750  .00000220  00000+0  15023-3 0  9994
2 63163  88.9756 319.1719 0016761 106.9485 253.3531 13.96079849 47154
QIANFAN-78              
1 63164U 25046F   25337.42955422  .00000040  00000+0  42642-4 0  9995
2 63164  88.9754 320.9539 0015728 150.3427 209.8619 13.50974849 46172
QIANFAN-79              
1 63165U 25046G   25337.45822744  .00000054  00000+0  64255-4 0  9998
2 63165  88.9758 321.0581 0015471 148.4990 211.7090 13.50976306 46124
QIANFAN-80              
1 63166U 25046H   25337.47472816  .00000116  00000+0  16007-3 0  9992
2 63166  88.9755 320.7634 0014320 152.0051 208.1873 13.50973667 46281
QIANFAN-81              
1 63167U 25046J   25337.45330253  .00000127  00000+0  17791-3 0  9992
2 63167  88.9755 320.8337 0015664 141.6296 218.5973 13.50999136 46230
QIANFAN-82              
1 63168U 25046K   25337.48717118  .00000074  00000+0  96253-4 0  9997
2 63168  88.9755 320.8740 0013595 148.0184 212.1795 13.50972848 46229
QIANFAN-83              
1 63169U 25046L   25337.44203650  .00000074  00000+0  79420-4 0  9992
2 63169  88.9756 320.6733 0015290 135.4264 224.8126 13.61970933 46339
QIANFAN-84              
1 63170U 25046M   25337.44098676 -.00000029  00000+0 -64347-4 0  9998
2 63170  88.9752 321.0117 0016621 146.3204 213.9007 13.50984619 46142
QIANFAN-85              
1 63171U 25046N   25337.43767280  .00000128  00000+0  17986-3 0  9996
2 63171  88.9754 320.8836 0013979 147.2031 212.9991 13.50973108 46211
QIANFAN-86              
1 63172U 25046P   25337.44600066  .00000103  00000+0  14089-3 0  9990
2 63172  88.9757 320.7447 0011749 149.9394 210.2434 13.50973095 46292
QIANFAN-87              
1 63173U 25046Q   25337.49138242  .00000036  00000+0  36225-4 0  9990
2 63173  88.9753 320.8520 0012538 145.8884 214.3075 13.50971605 46233
QIANFAN-88              
1 63174U 25046R   25337.50775367  .00000099  00000+0  13402-3 0  9998
2 63174  88.9755 320.8046 0012703 153.5656 206.6146 13.50977689 46260
QIANFAN-89              
1 63175U 25046S   25337.47052984  .00000118  00000+0  16405-3 0  9996
2 63175  88.9755 320.9976 0017309 146.6568 213.5677 13.50973318 46155
QIANFAN-90              
1 63176U 25046T   25337.49927966  .00000011  00000+0 -22452-5 0  9994
2 63176  88.9755 320.9670 0014311 143.7341 216.4783 13.50974651 46177
QIANFAN-91              
1 66033U 25233A   25337.50974457  .00000539  00000+0  38867-3 0  9995
2 66033  88.9948  63.1539 0018877  68.6034 291.7154 13.95236806  6694
QIANFAN-92              
1 66034U 25233B   25337.51320227  .00000560  00000+0  39637-3 0  9997
2 66034  88.9962  63.1563 0017982  69.5629 290.7477 13.96336327  6691
QIANFAN-93              
1 66035U 25233C   25337.51149937  .00000206  00000+0  14543-3 0  9991
2 66035  88.9959  63.1558 0017233  69.6789 290.6236 13.93939015  6691
QIANFAN-94              
1 66036U 25233D   25337.50525692  .00000480  00000+0  33786-3 0  9991
2 66036  88.9957  63.1554 0016895  69.7347 290.5645 13.96413174  6699
QIANFAN-95              
1 66037U 25233E   25337.30058090  .00000872  00000+0  41325-3 0  9996
2 66037  88.9978  63.1241 0019602  91.0449 269.2986 14.18635365  6690
QIANFAN-96              
1 66038U 25233F   25337.53030500  .00000392  00000+0  28636-3 0  9995
2 66038  88.9965  63.1598 0018420  71.6618 288.6559 13.93957998  6693
QIANFAN-97              
1 66039U 25233G   25337.51478578  .00000418  00000+0  29678-3 0  9991
2 66039  88.9966  63.1577 0017673  73.0433 287.2679 13.95720493  6690
QIANFAN-98              
1 66040U 25233H   25337.50609289  .00000123  00000+0  65333-4 0  9999
2 66040  88.9965  63.1191 0016735  70.5661 289.7329 14.07103218  6712
QIANFAN-99              
1 66041U 25233J   25337.51337044  .00000561  00000+0  40272-3 0  9998
2 66041  88.9966  63.1572 0017619  68.8552 291.4505 13.95570550  6694
QIANFAN-100             
1 66042U 25233K   25337.51348970  .00000690  00000+0  41025-3 0  9999
2 66042  88.9966  63.1201 0017344  73.2128 287.0956 14.06287195  6715
QIANFAN-101             
1 66043U 25233L   25337.47817622  .00000459  00000+0  18355-3 0  9993
2 66043  88.9966  63.0964 0016760  69.5162 290.7829 14.26667002  6720
QIANFAN-102             
1 66044U 25233M   25337.48190300  .00000346  00000+0  23182-3 0  9991
2 66044  88.9963  63.1516 0016932  73.9368 286.3673 13.98474033  6692
QIANFAN-103             
1 66045U 25233N   25337.52564062  .00000549  00000+0  39998-3 0  9994
2 66045  88.9963  63.1591 0017660  69.5438 290.7632 13.94646722  6690
QIANFAN-104             
1 66046U 25233P   25337.19517084  .00000388  00000+0  25986-3 0  9993
2 66046  88.9963  63.1843 0016548  75.6641 284.6373 13.98852158  6655
QIANFAN-105             
1 66047U 25233Q   25337.48031356  .00000162  00000+0  10188-3 0  9997
2 66047  88.9967  63.1531 0017315  70.0430 290.2611 13.99258234  6690
QIANFAN-106             
1 66048U 25233R   25337.50960765  .00000208  00000+0  14158-3 0  9998
2 66048  88.9960  63.1562 0017807  68.9377 291.3702 13.96119263  6698
QIANFAN-107             
1 66049U 25233S   25337.48645613  .00000184  00000+0  12175-3 0  9998
2 66049  88.9939  63.1544 0017351  69.8371 290.4671 13.97180686  6696
QIANFAN-108             
1 66050U 25233T   25337.28133909  .00000246  00000+0  16784-3 0  9997
2 66050  88.9964  63.1791 0016809  71.4233 288.8768 13.96638395  6662
